QIANFAN-25              
1 61558U 24185G   25334.55211602  .00000456  00000+0  27024-3 0  9996
2 61558  88.9810  79.5660 0009391   1.4713 358.6495 14.05891313 67796
QIANFAN-26              
1 61559U 24185H   25334.54786289  .00000181  00000+0  16764-3 0  9998
2 61559  88.9811  81.0637 0006917  61.7794 298.4070 13.77800000 66991
QIANFAN-27              
1 61560U 24185J   25334.55007948  .00000722  00000+0  28924-3 0  9991
2 61560  88.9806  78.3699 0006732 344.1591  15.9392 14.27308455 68424
QIANFAN-28              
1 61561U 24185K   25334.60825724  .00001053  00000+0  41907-3 0  9992
2 61561  88.9824  78.3653 0005977 344.4346  15.6664 14.27993988 68448
QIANFAN-29              
1 61562U 24185L   25334.59274931  .00000205  00000+0  29912-3 0  9999
2 61562  88.9788  82.5629 0011741  89.4827 270.7670 13.51004135 66154
QIANFAN-30              
1 61563U 24185M   25334.55840083  .00000265  00000+0  39802-3 0  9998
2 61563  88.9808  82.0871 0009122  78.1207 282.0966 13.49983926 66424
QIANFAN-31              
1 61564U 24185N   25334.59832252  .00000172  00000+0  22197-3 0  9998
2 61564  88.9792  81.9044 0008448  74.0585 286.1500 13.57958622 66514
QIANFAN-32              
1 61565U 24185P   25334.60765552  .00000198  00000+0  28862-3 0  9992
2 61565  88.9852  82.2125 0011268  99.6350 260.6075 13.50728558 66401
